<?xml version="1.0" encoding="UTF-8" standalone="no" ?>
<q:quakeml xmlns:q="http://quakeml.org/xmlns/quakeml/1.2" xmlns="http://quakeml.org/xmlns/bed/1.2" xmlns:catalog="http://anss.org/xmlns/catalog/0.1" xmlns:tensor="http://anss.org/xmlns/tensor/0.1">

  <eventParameters xmlns="http://quakeml.org/xmlns/bed/1.2" publicID="quakeml:us.anss.org/eventparameters/10004gy9/1455687921">
    <comment>
      <text>HYDRA - us</text>
    </comment>
    <event catalog:dataid="us10004gy9" catalog:datasource="us" catalog:eventid="10004gy9" catalog:eventsource="us" publicID="quakeml:us.anss.org/event/10004gy9">
      <description>
        <text>One person died from a heart attack at Al Hoceima and minor damage to some buildings at Nador, Morocco. Felt (VI) at Imzouren; (V) at Fes and Nador; (III) at Casablanca and Tetouan. Felt from El Jadida to Oujda and from Tangier to Fes. At least 26 people injured, several buildings damaged and telephone communications and electricity disrupted at Ciudad de Melilla, Spain. Felt (V) at Ciudad de Melilla; (IV) at Almeria, Nerja and Torremolinos; (III) at Benahavis, Fuengirola, Malaga and Marbella. Felt from Huelva to Almeria and from Jaen to La Linea. Felt (III) in Gibraltar.
</text>
        <type>felt report</type>
      </description>
      <description>
        <text>STRAIT OF GIBRALTAR</text>
        <type>Flinn-Engdahl region</type>
      </description>
      <description>
        <text>50 km (31 miles) NNE of Al Hoceima, Morocco (pop 0)
52 km (32 miles) NNE of Tirhanimine, Morocco (pop 55827)
57 km (35 miles) NNE of Imzourene, Morocco (pop 26650)
78 km (48 miles) WNW of Melilla, Spain (pop 73460)
160 km (99 miles) ESE of Gibraltar, Gibraltar (pop 26544)
</text>
        <type>nearest cities</type>
      </description>
      <focalMechanism catalog:dataid="us_10004gy9_mww" catalog:datasource="us" publicID="quakeml:us.anss.org/focalmechanism/10004gy9/mww">
        <momentTensor publicID="quakeml:us.anss.org/momenttensor/10004gy9/mww">
          <derivedOriginID>quakeml:us.anss.org/origin/10004gy9/mww</derivedOriginID>
          <momentMagnitudeID>quakeml:us.anss.org/magnitude/10004gy9/mww</momentMagnitudeID>
          <scalarMoment>
            <value>3.84e+018</value>
          </scalarMoment>
          <tensor>
            <Mrr>
              <value>-3.85e+017</value>
            </Mrr>
            <Mtt>
              <value>-2.76e+018</value>
            </Mtt>
            <Mpp>
              <value>3.145e+018</value>
            </Mpp>
            <Mrt>
              <value>1.188e+018</value>
            </Mrt>
            <Mrp>
              <value>1.345e+018</value>
            </Mrp>
            <Mtp>
              <value>-1.649e+018</value>
            </Mtp>
          </tensor>
          <doubleCouple>0.9885</doubleCouple>
          <clvd>0.0115</clvd>
          <sourceTimeFunction>
            <type>triangle</type>
            <duration>16</duration>
            <riseTime>8</riseTime>
            <decayTime>8</decayTime>
          </sourceTimeFunction>
        </momentTensor>
        <triggeringOriginID>quakeml:us.anss.org/origin/10004gy9</triggeringOriginID>
        <nodalPlanes>
          <nodalPlane1>
            <strike>
              <value>209</value>
            </strike>
            <dip>
              <value>84</value>
            </dip>
            <rake>
              <value>-27</value>
            </rake>
          </nodalPlane1>
          <nodalPlane2>
            <strike>
              <value>302</value>
            </strike>
            <dip>
              <value>62</value>
            </dip>
            <rake>
              <value>-172</value>
            </rake>
          </nodalPlane2>
        </nodalPlanes>
        <principalAxes>
          <tAxis>
            <azimuth>
              <value>259</value>
            </azimuth>
            <plunge>
              <value>14</value>
            </plunge>
            <length>
              <value>3.8318e+018</value>
            </length>
          </tAxis>
          <pAxis>
            <azimuth>
              <value>162</value>
            </azimuth>
            <plunge>
              <value>24</value>
            </plunge>
            <length>
              <value>-3.85393e+018</value>
            </length>
          </pAxis>
          <nAxis>
            <azimuth>
              <value>17</value>
            </azimuth>
            <plunge>
              <value>62</value>
            </plunge>
            <length>
              <value>2.21257e+016</value>
            </length>
          </nAxis>
        </principalAxes>
        <evaluationMode>manual</evaluationMode>
        <evaluationStatus>confirmed</evaluationStatus>
        <creationInfo>
          <agencyID>us</agencyID>
          <agencyURI>smi:anss.org/metadata/agencyid/us</agencyURI>
          <creationTime>2016-01-25T05:56:26Z</creationTime>
        </creationInfo>
        <tensor:waveformFit xmlns="">0.00</tensor:waveformFit>
      </focalMechanism>
      <focalMechanism catalog:dataid="us_10004gy9_mwb" catalog:datasource="us" publicID="quakeml:us.anss.org/focalmechanism/10004gy9/mwb">
        <waveformID channelCode="LH1" locationCode="00" networkCode="IU" stationCode="ANMO" tensor:MTChanOffset="1" tensor:MTChanWaveformFit="0.53" tensor:MTChanWeight="0.19245"/>
        <waveformID channelCode="LH2" locationCode="00" networkCode="IU" stationCode="ANMO" tensor:MTChanOffset="-1" tensor:MTChanWaveformFit="0.84" tensor:MTChanWeight="0.19245"/>
        <waveformID channelCode="LH1" locationCode="00" networkCode="II" stationCode="ARU" tensor:MTChanOffset="10" tensor:MTChanWaveformFit="0.89" tensor:MTChanWeight="0.19245"/>
        <waveformID channelCode="LH2" locationCode="00" networkCode="II" stationCode="ARU" tensor:MTChanOffset="4" tensor:MTChanWaveformFit="0.96" tensor:MTChanWeight="0.19245"/>
        <waveformID channelCode="LH1" locationCode="00" networkCode="IU" stationCode="BBSR" tensor:MTChanOffset="6" tensor:MTChanWaveformFit="0.59" tensor:MTChanWeight="0.19245"/>
        <waveformID channelCode="LH2" locationCode="00" networkCode="IU" stationCode="BBSR" tensor:MTChanOffset="-1" tensor:MTChanWaveformFit="0.92" tensor:MTChanWeight="0.19245"/>
        <waveformID channelCode="LH1" locationCode="00" networkCode="IC" stationCode="BJT" tensor:MTChanOffset="-8" tensor:MTChanWaveformFit="0.69" tensor:MTChanWeight="0.19245"/>
        <waveformID channelCode="LH2" locationCode="00" networkCode="IC" stationCode="BJT" tensor:MTChanOffset="-1" tensor:MTChanWaveformFit="0.91" tensor:MTChanWeight="0.19245"/>
        <waveformID channelCode="BHE" locationCode="00" networkCode="GT" stationCode="BOSA" tensor:MTChanOffset="-5" tensor:MTChanWaveformFit="0.57" tensor:MTChanWeight="0.19245"/>
        <waveformID channelCode="BHN" locationCode="00" networkCode="GT" stationCode="BOSA" tensor:MTChanOffset="-5" tensor:MTChanWaveformFit="0.91" tensor:MTChanWeight="0.19245"/>
        <waveformID channelCode="SHZ" locationCode="10" networkCode="GT" stationCode="BOSA" tensor:MTChanOffset="6" tensor:MTChanWaveformFit="-0.06" tensor:MTChanWeight="1"/>
        <waveformID channelCode="LH1" locationCode="00" networkCode="US" stationCode="BOZ" tensor:MTChanOffset="2" tensor:MTChanWaveformFit="0.8" tensor:MTChanWeight="0.19245"/>
        <waveformID channelCode="LH2" locationCode="00" networkCode="US" stationCode="BOZ" tensor:MTChanOffset="3" tensor:MTChanWaveformFit="0.78" tensor:MTChanWeight="0.19245"/>
        <waveformID channelCode="LH1" locationCode="00" networkCode="II" stationCode="BRVK" tensor:MTChanOffset="5" tensor:MTChanWaveformFit="0.81" tensor:MTChanWeight="0.19245"/>
        <waveformID channelCode="LH2" locationCode="00" networkCode="II" stationCode="BRVK" tensor:MTChanOffset="1" tensor:MTChanWaveformFit="0.93" tensor:MTChanWeight="0.19245"/>
        <waveformID channelCode="LH1" locationCode="00" networkCode="US" stationCode="BW06" tensor:MTChanOffset="2" tensor:MTChanWaveformFit="0.8" tensor:MTChanWeight="0.19245"/>
        <waveformID channelCode="LH2" locationCode="00" networkCode="US" stationCode="BW06" tensor:MTChanOffset="6" tensor:MTChanWaveformFit="0.73" tensor:MTChanWeight="0.19245"/>
        <waveformID channelCode="LH1" locationCode="00" networkCode="US" stationCode="CBN" tensor:MTChanOffset="8" tensor:MTChanWaveformFit="0.37" tensor:MTChanWeight="0.19245"/>
        <waveformID channelCode="LH2" locationCode="00" networkCode="US" stationCode="CBN" tensor:MTChanOffset="0" tensor:MTChanWaveformFit="0.74" tensor:MTChanWeight="0.19245"/>
        <waveformID channelCode="LH1" locationCode="00" networkCode="IU" stationCode="CHTO" tensor:MTChanOffset="3" tensor:MTChanWaveformFit="0.82" tensor:MTChanWeight="0.19245"/>
        <waveformID channelCode="LH2" locationCode="00" networkCode="IU" stationCode="CHTO" tensor:MTChanOffset="-1" tensor:MTChanWaveformFit="0.78" tensor:MTChanWeight="0.19245"/>
        <waveformID channelCode="LH1" locationCode="00" networkCode="IU" stationCode="COLA" tensor:MTChanOffset="-2" tensor:MTChanWaveformFit="0.86" tensor:MTChanWeight="0.19245"/>
        <waveformID channelCode="BHE" locationCode="00" networkCode="GT" stationCode="CPUP" tensor:MTChanOffset="2" tensor:MTChanWaveformFit="0.74" tensor:MTChanWeight="0.19245"/>
        <waveformID channelCode="BHN" locationCode="00" networkCode="GT" stationCode="CPUP" tensor:MTChanOffset="5" tensor:MTChanWaveformFit="0.66" tensor:MTChanWeight="0.19245"/>
        <waveformID channelCode="LH1" locationCode="00" networkCode="US" stationCode="DGMT" tensor:MTChanOffset="7" tensor:MTChanWaveformFit="0.81" tensor:MTChanWeight="0.19245"/>
        <waveformID channelCode="LH1" locationCode="00" networkCode="US" stationCode="DUG" tensor:MTChanOffset="1" tensor:MTChanWaveformFit="0.67" tensor:MTChanWeight="0.19245"/>
        <waveformID channelCode="LH2" locationCode="00" networkCode="US" stationCode="DUG" tensor:MTChanOffset="3" tensor:MTChanWaveformFit="0.76" tensor:MTChanWeight="0.19245"/>
        <waveformID channelCode="LH1" locationCode="00" networkCode="IC" stationCode="ENH" tensor:MTChanOffset="-2" tensor:MTChanWaveformFit="0.75" tensor:MTChanWeight="0.19245"/>
        <waveformID channelCode="LH1" locationCode="00" networkCode="US" stationCode="HAWA" tensor:MTChanOffset="2" tensor:MTChanWaveformFit="0.78" tensor:MTChanWeight="0.19245"/>
        <waveformID channelCode="LH2" locationCode="00" networkCode="US" stationCode="HAWA" tensor:MTChanOffset="5" tensor:MTChanWaveformFit="0.79" tensor:MTChanWeight="0.19245"/>
        <waveformID channelCode="LH1" locationCode="00" networkCode="IC" stationCode="HIA" tensor:MTChanOffset="20" tensor:MTChanWaveformFit="-0.09" tensor:MTChanWeight="0.19245"/>
        <waveformID channelCode="LH2" locationCode="00" networkCode="IC" stationCode="HIA" tensor:MTChanOffset="-3" tensor:MTChanWaveformFit="0.91" tensor:MTChanWeight="0.19245"/>
        <waveformID channelCode="LH1" locationCode="00" networkCode="US" stationCode="HLID" tensor:MTChanOffset="0" tensor:MTChanWaveformFit="0.77" tensor:MTChanWeight="0.19245"/>
        <waveformID channelCode="LH2" locationCode="00" networkCode="US" stationCode="HLID" tensor:MTChanOffset="0" tensor:MTChanWaveformFit="0.84" tensor:MTChanWeight="0.19245"/>
        <waveformID channelCode="LH1" locationCode="00" networkCode="IU" stationCode="INCN" tensor:MTChanOffset="-4" tensor:MTChanWaveformFit="0.73" tensor:MTChanWeight="0.19245"/>
        <waveformID channelCode="LH2" locationCode="00" networkCode="IU" stationCode="INCN" tensor:MTChanOffset="2" tensor:MTChanWaveformFit="0.81" tensor:MTChanWeight="0.19245"/>
        <waveformID channelCode="BHN" locationCode="--" networkCode="CN" stationCode="INK" tensor:MTChanOffset="3" tensor:MTChanWaveformFit="0.85" tensor:MTChanWeight="0.19245"/>
        <waveformID channelCode="LH1" locationCode="00" networkCode="US" stationCode="ISCO" tensor:MTChanOffset="0" tensor:MTChanWaveformFit="0.77" tensor:MTChanWeight="0.19245"/>
        <waveformID channelCode="LH2" locationCode="00" networkCode="US" stationCode="ISCO" tensor:MTChanOffset="2" tensor:MTChanWaveformFit="0.85" tensor:MTChanWeight="0.19245"/>
        <waveformID channelCode="LH1" locationCode="00" networkCode="US" stationCode="JFWS" tensor:MTChanOffset="2" tensor:MTChanWaveformFit="0.5" tensor:MTChanWeight="0.19245"/>
        <waveformID channelCode="LH2" locationCode="00" networkCode="US" stationCode="JFWS" tensor:MTChanOffset="4" tensor:MTChanWaveformFit="0.8" tensor:MTChanWeight="0.19245"/>
        <waveformID channelCode="LHZ" locationCode="00" networkCode="II" stationCode="JTS" tensor:MTChanOffset="6" tensor:MTChanWaveformFit="0.48" tensor:MTChanWeight="1"/>
        <waveformID channelCode="LH1" locationCode="10" networkCode="II" stationCode="JTS" tensor:MTChanOffset="10" tensor:MTChanWaveformFit="0.51" tensor:MTChanWeight="0.19245"/>
        <waveformID channelCode="LH1" locationCode="00" networkCode="IU" stationCode="KBS" tensor:MTChanOffset="-1" tensor:MTChanWaveformFit="0.75" tensor:MTChanWeight="0.19245"/>
        <waveformID channelCode="LH2" locationCode="00" networkCode="IU" stationCode="KBS" tensor:MTChanOffset="-7" tensor:MTChanWaveformFit="0.73" tensor:MTChanWeight="0.19245"/>
        <waveformID channelCode="LH1" locationCode="10" networkCode="II" stationCode="KDAK" tensor:MTChanOffset="-3" tensor:MTChanWaveformFit="0.76" tensor:MTChanWeight="0.19245"/>
        <waveformID channelCode="LH1" locationCode="00" networkCode="IU" stationCode="KEV" tensor:MTChanOffset="-1" tensor:MTChanWaveformFit="0.75" tensor:MTChanWeight="0.19245"/>
        <waveformID channelCode="LH1" locationCode="00" networkCode="IU" stationCode="KMBO" tensor:MTChanOffset="-12" tensor:MTChanWaveformFit="0.79" tensor:MTChanWeight="0.19245"/>
        <waveformID channelCode="LH2" locationCode="00" networkCode="IU" stationCode="KMBO" tensor:MTChanOffset="-8" tensor:MTChanWaveformFit="0.93" tensor:MTChanWeight="0.19245"/>
        <waveformID channelCode="LH1" locationCode="00" networkCode="US" stationCode="KSU1" tensor:MTChanOffset="3" tensor:MTChanWaveformFit="0.69" tensor:MTChanWeight="0.19245"/>
        <waveformID channelCode="LH2" locationCode="00" networkCode="US" stationCode="KSU1" tensor:MTChanOffset="7" tensor:MTChanWaveformFit="0.79" tensor:MTChanWeight="0.19245"/>
        <waveformID channelCode="LH1" locationCode="00" networkCode="US" stationCode="LBNH" tensor:MTChanOffset="11" tensor:MTChanWaveformFit="0.36" tensor:MTChanWeight="0.19245"/>
        <waveformID channelCode="LH2" locationCode="00" networkCode="US" stationCode="LBNH" tensor:MTChanOffset="1" tensor:MTChanWaveformFit="0.83" tensor:MTChanWeight="0.19245"/>
        <waveformID channelCode="BHE" locationCode="00" networkCode="GT" stationCode="LBTB" tensor:MTChanOffset="-5" tensor:MTChanWaveformFit="0.72" tensor:MTChanWeight="0.19245"/>
        <waveformID channelCode="BHN" locationCode="00" networkCode="GT" stationCode="LBTB" tensor:MTChanOffset="-6" tensor:MTChanWaveformFit="0.93" tensor:MTChanWeight="0.19245"/>
        <waveformID channelCode="BHN" locationCode="00" networkCode="GT" stationCode="LPAZ" tensor:MTChanOffset="2" tensor:MTChanWaveformFit="0.75" tensor:MTChanWeight="0.19245"/>
        <waveformID channelCode="LHZ" locationCode="00" networkCode="US" stationCode="LRAL" tensor:MTChanOffset="6" tensor:MTChanWaveformFit="0.22" tensor:MTChanWeight="1"/>
        <waveformID channelCode="LH1" locationCode="00" networkCode="IU" stationCode="LSZ" tensor:MTChanOffset="1" tensor:MTChanWaveformFit="0.92" tensor:MTChanWeight="0.19245"/>
        <waveformID channelCode="LH2" locationCode="00" networkCode="IU" stationCode="LSZ" tensor:MTChanOffset="-3" tensor:MTChanWaveformFit="0.89" tensor:MTChanWeight="0.19245"/>
        <waveformID channelCode="LHZ" locationCode="00" networkCode="IU" stationCode="LSZ" tensor:MTChanOffset="0" tensor:MTChanWaveformFit="0.48" tensor:MTChanWeight="1"/>
        <waveformID channelCode="LH1" locationCode="00" networkCode="IU" stationCode="LVC" tensor:MTChanOffset="-9" tensor:MTChanWaveformFit="0.5" tensor:MTChanWeight="0.19245"/>
        <waveformID channelCode="LH2" locationCode="00" networkCode="IU" stationCode="LVC" tensor:MTChanOffset="2" tensor:MTChanWaveformFit="0.81" tensor:MTChanWeight="0.19245"/>
        <waveformID channelCode="LH1" locationCode="00" networkCode="IU" stationCode="MA2" tensor:MTChanOffset="-3" tensor:MTChanWaveformFit="0.63" tensor:MTChanWeight="0.19245"/>
        <waveformID channelCode="LH2" locationCode="00" networkCode="IU" stationCode="MA2" tensor:MTChanOffset="-3" tensor:MTChanWaveformFit="0.88" tensor:MTChanWeight="0.19245"/>
        <waveformID channelCode="LH1" locationCode="00" networkCode="IC" stationCode="MDJ" tensor:MTChanOffset="-20" tensor:MTChanWaveformFit="-0.05" tensor:MTChanWeight="0.19245"/>
        <waveformID channelCode="BH1" locationCode="00" networkCode="II" stationCode="MSEY" tensor:MTChanOffset="-7" tensor:MTChanWaveformFit="0.62" tensor:MTChanWeight="0.19245"/>
        <waveformID channelCode="BH2" locationCode="00" networkCode="II" stationCode="MSEY" tensor:MTChanOffset="-2" tensor:MTChanWaveformFit="0.92" tensor:MTChanWeight="0.19245"/>
        <waveformID channelCode="LH1" locationCode="00" networkCode="US" stationCode="MSO" tensor:MTChanOffset="3" tensor:MTChanWaveformFit="0.83" tensor:MTChanWeight="0.19245"/>
        <waveformID channelCode="LH2" locationCode="00" networkCode="US" stationCode="MSO" tensor:MTChanOffset="4" tensor:MTChanWaveformFit="0.81" tensor:MTChanWeight="0.19245"/>
        <waveformID channelCode="LH1" locationCode="00" networkCode="US" stationCode="NEW" tensor:MTChanOffset="2" tensor:MTChanWaveformFit="0.86" tensor:MTChanWeight="0.19245"/>
        <waveformID channelCode="LH2" locationCode="00" networkCode="US" stationCode="NEW" tensor:MTChanOffset="5" tensor:MTChanWaveformFit="0.81" tensor:MTChanWeight="0.19245"/>
        <waveformID channelCode="LH1" locationCode="00" networkCode="II" stationCode="NIL" tensor:MTChanOffset="1" tensor:MTChanWaveformFit="0.89" tensor:MTChanWeight="0.19245"/>
        <waveformID channelCode="HHN" locationCode="01" networkCode="UU" stationCode="NLU" tensor:MTChanOffset="3" tensor:MTChanWaveformFit="0.59" tensor:MTChanWeight="0.19245"/>
        <waveformID channelCode="LH1" locationCode="10" networkCode="II" stationCode="NNA" tensor:MTChanOffset="-4" tensor:MTChanWaveformFit="0.66" tensor:MTChanWeight="0.19245"/>
        <waveformID channelCode="LH2" locationCode="10" networkCode="II" stationCode="NNA" tensor:MTChanOffset="-2" tensor:MTChanWaveformFit="0.48" tensor:MTChanWeight="0.19245"/>
        <waveformID channelCode="LH1" locationCode="00" networkCode="II" stationCode="OBN" tensor:MTChanOffset="7" tensor:MTChanWaveformFit="0.86" tensor:MTChanWeight="0.19245"/>
        <waveformID channelCode="LH1" locationCode="00" networkCode="IU" stationCode="PAYG" tensor:MTChanOffset="-11" tensor:MTChanWaveformFit="0.5" tensor:MTChanWeight="0.19245"/>
        <waveformID channelCode="LH2" locationCode="00" networkCode="IU" stationCode="PAYG" tensor:MTChanOffset="1" tensor:MTChanWaveformFit="0.78" tensor:MTChanWeight="0.19245"/>
        <waveformID channelCode="LH1" locationCode="00" networkCode="IU" stationCode="PET" tensor:MTChanOffset="5" tensor:MTChanWaveformFit="0.64" tensor:MTChanWeight="0.19245"/>
        <waveformID channelCode="LH2" locationCode="00" networkCode="IU" stationCode="PET" tensor:MTChanOffset="1" tensor:MTChanWaveformFit="0.68" tensor:MTChanWeight="0.19245"/>
        <waveformID channelCode="BHE" locationCode="--" networkCode="AT" stationCode="PMR" tensor:MTChanOffset="6" tensor:MTChanWaveformFit="0.54" tensor:MTChanWeight="0.19245"/>
